{"type": "FeatureCollection", "features": [ {"type": "Feature", "properties": {"norad_id": 66767, "name": "TRANSPORTER-15DF", "group": "last-30-days", "lat": 50.9775260218633, "lon": 62.915743399099696, "alt_km": 504.9566271404574, "timestamp": "2025-12-26T15:29:38.167317+00:00", "meta": {"OBJECT_NAME": "TRANSPORTER-15DF", "OBJECT_ID": "2025-276DF", "EPOCH": "2025-12-26T05:46:39.459936", "MEAN_MOTION": 15.18358989, "ECCENTRICITY": 0.00020526, "INCLINATION": 97.4364, "RA_OF_ASC_NODE": 71.7923, "ARG_OF_PERICENTER": 86.4342, "MEAN_ANOMALY": 273.7127, "EPHEMERIS_TYPE": 0, "CLASSIFICATION_TYPE": "U", "NORAD_CAT_ID": 66767, "ELEMENT_SET_NO": 999, "REV_AT_EPOCH": 417, "BSTAR": 0.00021662985, "MEAN_MOTION_DOT": 4.383e-05, "MEAN_MOTION_DDOT": 0}, "tle": {"line1": "1 66767U 25276DF  25360.24073449  .00004383  00000+0  21663-3 0  9991", "line2": "2 66767  97.4364  71.7923 0002052  86.4342 273.7127 15.18358989  4170"}}, "geometry": {"type": "Point", "coordinates": [62.915743399099696, 50.9775260218633]}}, {"type": "Feature", "properties": {"norad_id": 66768, "name": "TRANSPORTER-15DG", "group": "last-30-days", "lat": 64.87465790239074, "lon": 56.024027602319656, "alt_km": 502.37333034079074, "timestamp": "2025-12-26T15:29:38.167327+00:00", "meta": {"OBJECT_NAME": "TRANSPORTER-15DG", "OBJECT_ID": "2025-276DG", "EPOCH": "2025-12-26T05:42:58.124736", "MEAN_MOTION": 15.18576446, "ECCENTRICITY": 0.0002102, "INCLINATION": 97.4349, "RA_OF_ASC_NODE": 71.7914, "ARG_OF_PERICENTER": 73.7972, "MEAN_ANOMALY": 286.3494, "EPHEMERIS_TYPE": 0, "CLASSIFICATION_TYPE": "U", "NORAD_CAT_ID": 66768, "ELEMENT_SET_NO": 999, "REV_AT_EPOCH": 417, "BSTAR": 0.00052432164, "MEAN_MOTION_DOT": 0.00010779, "MEAN_MOTION_DDOT": 0}, "tle": {"line1": "1 66768U 25276DG  25360.23817274  .00010779  00000+0  52432-3 0  9997", "line2": "2 66768  97.4349  71.7914 0002102  73.7972 286.3494 15.18576446  4175"}}, "geometry": {"type": "Point", "coordinates": [56.024027602319656, 64.87465790239074]}}, {"type": "Feature", "properties": {"norad_id": 66769, "name": "TRANSPORTER-15DH", "group": "last-30-days", "lat": 58.56627622200201, "lon": 59.86285758154864, "alt_km": 503.478645497099, "timestamp": "2025-12-26T15:29:38.167337+00:00", "meta": {"OBJECT_NAME": "TRANSPORTER-15DH", "OBJECT_ID": "2025-276DH", "EPOCH": "2025-12-26T05:44:38.426496", "MEAN_MOTION": 15.18444198, "ECCENTRICITY": 0.00027297, "INCLINATION": 97.4411, "RA_OF_ASC_NODE": 71.8103, "ARG_OF_PERICENTER": 101.417, "MEAN_ANOMALY": 258.7371, "EPHEMERIS_TYPE": 0, "CLASSIFICATION_TYPE": "U", "NORAD_CAT_ID": 66769, "ELEMENT_SET_NO": 999, "REV_AT_EPOCH": 417, "BSTAR": 0.00029728837, "MEAN_MOTION_DOT": 6.056e-05, "MEAN_MOTION_DDOT": 0}, "tle": {"line1": "1 66769U 25276DH  25360.23933364  .00006056  00000+0  29729-3 0  9993", "line2": "2 66769  97.4411  71.8103 0002729 101.4170 258.7371 15.18444198  4176"}}, "geometry": {"type": "Point", "coordinates": [59.86285758154864, 58.56627622200201]}}, {"type": "Feature", "properties": {"norad_id": 66770, "name": "TRANSPORTER-15DJ", "group": "last-30-days", "lat": 59.990311762209146, "lon": 59.13785385955597, "alt_km": 503.4762507897058, "timestamp": "2025-12-26T15:29:38.167347+00:00", "meta": {"OBJECT_NAME": "TRANSPORTER-15DJ", "OBJECT_ID": "2025-276DJ", "EPOCH": "2025-12-26T05:44:14.383968", "MEAN_MOTION": 15.18414228, "ECCENTRICITY": 0.00033857, "INCLINATION": 97.4442, "RA_OF_ASC_NODE": 71.8219, "ARG_OF_PERICENTER": 116.9093, "MEAN_ANOMALY": 243.2487, "EPHEMERIS_TYPE": 0, "CLASSIFICATION_TYPE": "U", "NORAD_CAT_ID": 66770, "ELEMENT_SET_NO": 999, "REV_AT_EPOCH": 417, "BSTAR": 0.00040071428, "MEAN_MOTION_DOT": 8.182e-05, "MEAN_MOTION_DDOT": 0}, "tle": {"line1": "1 66770U 25276DJ  25360.23905537  .00008182  00000+0  40071-3 0  9991", "line2": "2 66770  97.4442  71.8219 0003385 116.9093 243.2487 15.18414228  4172"}}, "geometry": {"type": "Point", "coordinates": [59.13785385955597, 59.990311762209146]}}, {"type": "Feature", "properties": {"norad_id": 66771, "name": "TRANSPORTER-15DK", "group": "last-30-days", "lat": 63.403517518352785, "lon": 57.084064486006106, "alt_km": 502.5998145233816, "timestamp": "2025-12-26T15:29:38.167357+00:00", "meta": {"OBJECT_NAME": "TRANSPORTER-15DK", "OBJECT_ID": "2025-276DK", "EPOCH": "2025-12-26T05:43:20.729568", "MEAN_MOTION": 15.18511814, "ECCENTRICITY": 0.00030863, "INCLINATION": 97.4436, "RA_OF_ASC_NODE": 71.8202, "ARG_OF_PERICENTER": 108.6714, "MEAN_ANOMALY": 251.4856, "EPHEMERIS_TYPE": 0, "CLASSIFICATION_TYPE": "U", "NORAD_CAT_ID": 66771, "ELEMENT_SET_NO": 999, "REV_AT_EPOCH": 417, "BSTAR": 0.00045515506, "MEAN_MOTION_DOT": 9.33e-05, "MEAN_MOTION_DDOT": 0}, "tle": {"line1": "1 66771U 25276DK  25360.23843437  .00009330  00000+0  45516-3 0  9997", "line2": "2 66771  97.4436  71.8202 0003086 108.6714 251.4856 15.18511814  4174"}}, "geometry": {"type": "Point", "coordinates": [57.084064486006106, 63.403517518352785]}}, {"type": "Feature", "properties": {"norad_id": 66772, "name": "TRANSPORTER-15DL", "group": "last-30-days", "lat": 77.7520700802838, "lon": 35.19651239828052, "alt_km": 500.2091301695973, "timestamp": "2025-12-26T15:29:38.167369+00:00", "meta": {"OBJECT_NAME": "TRANSPORTER-15DL", "OBJECT_ID": "2025-276DL", "EPOCH": "2025-12-26T05:39:16.978752", "MEAN_MOTION": 15.18772175, "ECCENTRICITY": 0.00029923, "INCLINATION": 97.4428, "RA_OF_ASC_NODE": 71.8206, "ARG_OF_PERICENTER": 96.6923, "MEAN_ANOMALY": 263.4652, "EPHEMERIS_TYPE": 0, "CLASSIFICATION_TYPE": "U", "NORAD_CAT_ID": 66772, "ELEMENT_SET_NO": 999, "REV_AT_EPOCH": 417, "BSTAR": 0.0014998339, "MEAN_MOTION_DOT": 0.00031222, "MEAN_MOTION_DDOT": 0}, "tle": {"line1": "1 66772U 25276DL  25360.23561318  .00031222  00000+0  14998-2 0  9997", "line2": "2 66772  97.4428  71.8206 0002992  96.6923 263.4652 15.18772175  4179"}}, "geometry": {"type": "Point", "coordinates": [35.19651239828052, 77.7520700802838]}}, {"type": "Feature", "properties": {"norad_id": 66773, "name": "TRANSPORTER-15DM", "group": "last-30-days", "lat": 70.02837083285381, "lon": 51.13708550002539, "alt_km": 501.37910332285173, "timestamp": "2025-12-26T15:29:38.167379+00:00", "meta": {"OBJECT_NAME": "TRANSPORTER-15DM", "OBJECT_ID": "2025-276DM", "EPOCH": "2025-12-26T05:41:31.392096", "MEAN_MOTION": 15.18568229, "ECCENTRICITY": 0.0003162, "INCLINATION": 97.4424, "RA_OF_ASC_NODE": 71.8173, "ARG_OF_PERICENTER": 96.2438, "MEAN_ANOMALY": 263.9157, "EPHEMERIS_TYPE": 0, "CLASSIFICATION_TYPE": "U", "NORAD_CAT_ID": 66773, "ELEMENT_SET_NO": 999, "REV_AT_EPOCH": 417, "BSTAR": 0.00046797961, "MEAN_MOTION_DOT": 9.611e-05, "MEAN_MOTION_DDOT": 0}, "tle": {"line1": "1 66773U 25276DM  25360.23716889  .00009611  00000+0  46798-3 0  9994", "line2": "2 66773  97.4424  71.8173 0003162  96.2438 263.9157 15.18568229  4174"}}, "geometry": {"type": "Point", "coordinates": [51.13708550002539, 70.02837083285381]}}, {"type": "Feature", "properties": {"norad_id": 66774, "name": "TRANSPORTER-15DN", "group": "last-30-days", "lat": 73.25412235126633, "lon": 46.47100495815561, "alt_km": 500.9611794839302, "timestamp": "2025-12-26T15:29:38.167391+00:00", "meta": {"OBJECT_NAME": "TRANSPORTER-15DN", "OBJECT_ID": "2025-276DN", "EPOCH": "2025-12-26T05:40:37.028352", "MEAN_MOTION": 15.18632964, "ECCENTRICITY": 0.00030255, "INCLINATION": 97.4409, "RA_OF_ASC_NODE": 71.8132, "ARG_OF_PERICENTER": 94.593, "MEAN_ANOMALY": 265.565, "EPHEMERIS_TYPE": 0, "CLASSIFICATION_TYPE": "U", "NORAD_CAT_ID": 66774, "ELEMENT_SET_NO": 999, "REV_AT_EPOCH": 417, "BSTAR": 0.00050343342, "MEAN_MOTION_DOT": 0.00010364, "MEAN_MOTION_DDOT": 0}, "tle": {"line1": "1 66774U 25276DN  25360.23653968  .00010364  00000+0  50343-3 0  9991", "line2": "2 66774  97.4409  71.8132 0003025  94.5930 265.5650 15.18632964  4173"}}, "geometry": {"type": "Point", "coordinates": [46.47100495815561, 73.25412235126633]}}, {"type": "Feature", "properties": {"norad_id": 66775, "name": "PHI 1", "group": "last-30-days", "lat": 77.60770711337543, "lon": 35.737450494395524, "alt_km": 500.80326871322086, "timestamp": "2025-12-26T15:29:38.167401+00:00", "meta": {"OBJECT_NAME": "PHI 1", "OBJECT_ID": "2025-276DP", "EPOCH": "2025-12-26T05:39:18.106272", "MEAN_MOTION": 15.1869531, "ECCENTRICITY": 0.00025549, "INCLINATION": 97.4333, "RA_OF_ASC_NODE": 71.7899, "ARG_OF_PERICENTER": 65.4438, "MEAN_ANOMALY": 294.7062, "EPHEMERIS_TYPE": 0, "CLASSIFICATION_TYPE": "U", "NORAD_CAT_ID": 66775, "ELEMENT_SET_NO": 999, "REV_AT_EPOCH": 417, "BSTAR": 0.00046004327, "MEAN_MOTION_DOT": 9.481e-05, "MEAN_MOTION_DDOT": 0}, "tle": {"line1": "1 66775U 25276DP  25360.23562623  .00009481  00000+0  46004-3 0  9996", "line2": "2 66775  97.4333  71.7899 0002554  65.4438 294.7062 15.18695310  4170"}}, "geometry": {"type": "Point", "coordinates": [35.737450494395524, 77.60770711337543]}}, {"type": "Feature", "properties": {"norad_id": 66776, "name": "TRANSPORTER-15DQ", "group": "last-30-days", "lat": 79.58273531942568, "lon": 26.92867611669731, "alt_km": 500.3256414061807, "timestamp": "2025-12-26T15:29:38.167411+00:00", "meta": {"OBJECT_NAME": "TRANSPORTER-15DQ", "OBJECT_ID": "2025-276DQ", "EPOCH": "2025-12-26T05:38:37.798080", "MEAN_MOTION": 15.18746814, "ECCENTRICITY": 0.00028, "INCLINATION": 97.4372, "RA_OF_ASC_NODE": 71.8032, "ARG_OF_PERICENTER": 78.572, "MEAN_ANOMALY": 281.5829, "EPHEMERIS_TYPE": 0, "CLASSIFICATION_TYPE": "U", "NORAD_CAT_ID": 66776, "ELEMENT_SET_NO": 999, "REV_AT_EPOCH": 417, "BSTAR": 0.00043958607, "MEAN_MOTION_DOT": 9.069e-05, "MEAN_MOTION_DDOT": 0}, "tle": {"line1": "1 66776U 25276DQ  25360.23515970  .00009069  00000+0  43959-3 0  9998", "line2": "2 66776  97.4372  71.8032 0002800  78.5720 281.5829 15.18746814  4178"}}, "geometry": {"type": "Point", "coordinates": [26.92867611669731, 79.58273531942568]}}]}